TEIKYOSAT-4 (OORURI)    
1 49396U 21102B   26068.67534185  .00002438  00000+0  15740-3 0  9994
2 49396  97.3797 101.9931 0010345 276.5421  83.4630 15.09119208237719
STARLINK-4031           
1 52679U 22053Z   26068.48238555 -.00000242  00000+0  29096-5 0  9992
2 52679  53.2162 145.0520 0001337  78.6905 281.4237 15.08844203211103
